#dP2023 12 10  6  0  0.00000000      96 __u+U IGS20 EXT  IAC
## 2292  21600.00000000   900.00000000 60288 0.2500000000000
+  118   C06C07C08C09C10C11C12C13C14C16C19C20C21C22C23C24C25
+        C26C27C28C29C30C32C33C34C35C36C37C38C39C40C41C42C43
+        C44C45C46E02E03E04E05E07E08E09E10E11E12E13E15E18E19
+        E21E24E25E26E27E30E31E33E34E36G01G02G03G04G05G06G07
+        G08G09G10G11G12G13G14G15G16G17G18G19G20G21G22G23G24
+        G25G26G27G28G29G30G31G32J02J03J04R01R02R03R04R05R07
+        R08R09R11R12R13R14R15R16R17R18R19R20R21R22R24R25  0
++         9 10  9  8 13  8  8  9  9  8  7  9  7  8  9  8  8
++         8  9  8  9  7  7  8  8  8  7  8  9 10  9  8  8  9
++         8  9  7  8  7  8  8  8  8  8  7  8  8  8  8  7  7
++         8  8  8  8  8  7  8  8  7  8  7  7  8  8  7  7  8
++         0  8  8  7  7  7  7  7  8  7  8  7  8  7  7  8  7
++         7  8  8  8  7  8  7  7  9  8  9  9  8  8  8  7  8
++         7  7  8  8  7  7  8  8  7  8  9  8  8  7  8 11  0
%c M  cc GPS ccc cccc cccc cccc cccc ccccc ccccc ccccc ccccc
%c cc cc ccc ccc cccc cccc cccc cccc ccccc ccccc ccccc ccccc
%f  0.0000000  0.000000000  0.00000000000  0.000000000000000
%f  0.0000000  0.000000000  0.00000000000  0.000000000000000
%i    0    0    0    0      0      0      0      0         0
%i    0    0    0    0      0      0      0      0         0
/* IAC                                ULTRA-RAPID PREDICTION
/* S/V CLOCKS ARE ALIGNED TO GNSS TIME                      
/* G:C1WC2W R:C1PC2P E:C1XC5X C:C2IC6I J:C1CC2S             
/* PCV:IGS20_2290 OL/AL:FES2004  NONE     YN ORB:CoN CLK:CoN
*  2023 12 11  1  0  0.00000000
PC06  -4268.842213  38154.777643  17774.585632    202.015085
PC07  -9361.681026  26152.732315 -31662.252065   -455.023207
PC08 -18715.712808  33123.629735  17955.531631    188.364613
PC09   1941.718770  41747.668823   8052.910937   -201.322573
PC10   -178.168235  27402.562742 -31658.902241    -48.792730
PC11  10535.373432 -12266.398131  22822.658461    300.098682
PC12  18898.833619   7494.776862  19160.426729    829.970233
PC13 -12740.865974  33425.377659  22256.460584    394.128926
PC14  20992.334811 -10551.713039 -15009.892058   -273.580870
PC16  -5508.480450  37025.552395  19969.337460   -219.743966
PC19 -12080.918717  14228.538545  20769.683688   -954.347808
PC20 -25885.280265   6114.808119   8488.960025     40.135535
PC21  25186.310822   6502.278495  10094.747427   -968.081246
PC22   9451.154539  14633.151875  21790.866286   -191.444626
PC23   -148.262186 -23050.358184  15733.353585   -805.956075
PC24  19724.678031 -11484.674588 -16097.042695    680.527511
PC25  12741.789434 -24837.969854    429.198448    275.290708
PC26  14757.366457   6984.375316 -22652.457535   -218.439736
PC27 -19402.786828 -15411.919797 -12841.103004    240.452143
PC28 -12348.270614 -24880.355457   2713.680379    181.866208
PC29  -3068.455341  20106.635398 -19107.266294    212.895527
PC30 -16693.855894   2791.946385 -22186.316879    -10.116138
PC32 -25199.054570  -6352.697967 -10165.067470   -541.596480
PC33  12090.534442 -14293.298503 -20692.105901   -942.026071
PC34  15995.618232  -4327.894106  22448.240561    322.221314
PC35  13304.671117  24409.177685  -2661.242237    483.531382
PC36 -13789.632670  24249.622451    356.766349    -98.147469
PC37 -14196.736049  -8029.246192  22647.359747   -919.526561
PC38 -22837.899800  33942.526057   9889.167692    123.262000
PC39  -6502.353494  34387.905423  23705.032124     -6.028851
PC40 -14201.978553  19717.740332 -34474.976318    -47.354365
PC41  -8667.564254 -14781.585945 -21976.666609   -873.074474
PC42  26494.134845  -5207.870035  -6970.155646   -483.181049
PC43   3944.188393 -19547.463017  19507.388901     51.810989
PC44  20025.755381  14820.306931  12594.604009    319.076593
PC45    472.294930  22736.165261 -16163.166214    -53.847504
PC46 -19621.301611  12471.020402  15390.980480   -106.521268
PE02  12176.120499  12293.316314 -24025.244944     85.596697
PE03  20858.594361  19509.300765   7756.386972    -79.283504
PE04 -26462.530441  -7672.675999  10812.773159   -277.243665
PE05   3199.156942  19920.303354  21656.913551   4699.289574
PE07  16836.191779  -8345.617148 -22871.130948    -92.381998
PE08  26505.398997   8167.605021 -10340.002689   -190.278948
PE09 -16877.277751   8129.651177  22914.788773   -258.518577
PE10 -15577.759666   8292.404614 -23761.051587   -585.411638
PE11 -12732.270652  19290.830283 -18498.494274   3259.876943
PE12 -15935.981899  -2761.757424 -24785.685973   -813.523321
PE13  12933.629547 -18638.165744  19021.819120    -19.666610
PE15  15820.005772   3368.068428  24802.439477    -74.055453
PE18  10313.913554 -12219.175654  18906.699474     80.518266
PE19 -19122.321726 -20277.756594  -9954.589468  -1040.363376
PE21   7862.439207 -19957.299561  20398.580028   -568.262934
PE24 -24483.475911  16048.762872  -4292.995162   -479.063996
PE25  -8241.644773  19999.602098 -20197.882173     -2.150756
PE26   2145.865033 -29485.335871   1546.657248    306.062439
PE27  24231.297642 -16346.771782   4725.414116   -221.104552
PE30  26061.026449  -2783.643489 -13788.917296   -731.885480
PE31 -26122.074465   3133.962411  13558.910124    -11.497097
PE33  -9082.219337 -23518.616166 -15508.517198      3.967030
PE34   9445.956629  23053.601777  15977.935997    -82.677515
PE36  -2521.675276  29412.779906  -2193.484481   -155.977788
PG01  13092.369663 -12713.692163  18823.944409    163.811413
PG02  14751.338755  -5863.534891  21773.143545   -517.275541
PG03  23668.954213 -11880.539456    778.569042     45.682806
PG04  17619.356490  -4374.127004 -19422.891154    236.192945
PG05 -23096.652487   3330.122001 -12949.566450   -153.652783
PG06  -6828.968477 -22568.883881 -12055.307299    481.692725
PG07   5590.894495 -24746.697248  -6496.040408     -8.744021
PG08  22804.995453   2115.791838  13712.933839   -156.345428
PG09   6990.527165 -13673.686395 -21757.518718     22.996833
PG10   1450.811182  15567.462147  21613.954998    -64.792978
PG11 -12293.438063 -13373.995663 -19370.373005   -495.799099
PG12 -24530.767212   9967.420932   1213.101676   -456.136156
PG13 -22353.980603 -12792.773841   6730.151486    604.348338
PG14   2718.534819 -17324.291418  19920.782806    267.409300
PG15 -23055.123270    302.246834  12876.641973    105.696209
PG16  20652.531576   3955.715711 -16818.041126   -406.480755
PG17  -6628.377134 -19315.281127  17341.967825    722.186273
PG18  -5156.248936  25358.424901  -5519.629829   -502.945122
PG19 -14877.705792 -19972.786690   9524.104485    410.767984
PG20 -15514.422330  -6433.143484 -20481.842809    397.277321
PG21  15398.432857   -923.979796  22112.173794    141.895608
PG22  -4503.291189 -14758.456075  22071.388866     68.280607
PG23 -11593.816886  18353.088312  15190.139833    113.869439
PG24 -14925.770713   6242.947474  20600.490393   -390.666519
PG25 -17798.783883  17340.814934  -9309.128708    480.984641
PG26  13635.911745   9677.959628 -20837.711218    210.226417
PG27  23317.390384  13052.404435   1691.563428    -81.392092
PG28   6667.289122  23843.462699  -9644.081992    -66.916595
PG29  -8665.042979  12186.741634 -21994.460708   -609.855107
PG30  -1400.785491 -26180.274100   3355.814955   -458.848099
PG31  10822.708884  17572.004414 -16690.539161   -226.496476
PG32  11523.721254  19137.376433  14711.125613   -595.063105
PJ02 -36042.182712  19086.119356  -6109.464479     -0.503704
PJ03 -18877.640177  28663.630831 -19889.367936    -11.468476
PJ04 -27930.416334  28395.401652  19939.254246     73.940688
PR01  25287.055557   3283.969964   -585.144837     71.827489
PR02  18616.877233  -4643.017230 -16808.252131    -22.343503
PR03   1310.451328 -10766.825049 -23043.406194     90.661112
PR04 -16208.314333 -10664.524029 -16521.850682    214.678914
PR05 -24972.211517  -5008.865151  -1050.590803    123.595874
PR07   -245.586843  10958.500435  23071.473296     71.043002
PR08  16454.688002  10629.932749  16417.021081    -73.633666
PR09 -17460.032895  17691.115363   5924.609484    158.013361
PR11   2553.292642  13224.340953 -21658.515280   -220.186837
PR12  15380.397417  -3682.752082 -19999.880141     34.324069
PR13  17940.975065 -16203.587957  -8167.191240    -42.201666
PR14   9726.071340 -20753.204789  11187.430944     25.724138
PR15  -3689.137008 -12258.934961  22076.423249     84.042013
PR16 -15134.825874   3573.994034  20233.745967     21.407612
PR17  -2780.370101 -22712.013316  11333.789433     42.412790
PR18 -10433.423328 -22682.480567  -5083.461397    116.238638
PR19 -12574.121148 -12941.955009 -18024.591034   -257.857038
PR20  -7717.232831   8950.967202 -22594.436828   -104.928310
PR21   2964.338684  22894.275591 -10811.857132    -60.043683
PR22  10253.548791  22554.755974   6125.823069     97.662711
PR24   7544.140210  -9956.507698  22266.858889    -35.468103
PR25  15898.338240  10637.602233  16882.547959    -12.844838
EOF
